[{"OBJECT_NAME":"TIANPING 2A","OBJECT_ID":"2022-032A","EPOCH":"2026-03-09T22:58:37.953408","MEAN_MOTION":14.9690979,"ECCENTRICITY":0.00109299,"INCLINATION":97.5994,"RA_OF_ASC_NODE":109.5163,"ARG_OF_PERICENTER":146.1091,"MEAN_ANOMALY":214.0831,"EPHEMERIS_TYPE":0,"CLASSIFICATION_TYPE":"U","NORAD_CAT_ID":52153,"ELEMENT_SET_NO":999,"REV_AT_EPOCH":21499,"BSTAR":3.4221979e-5,"MEAN_MOTION_DOT":3.37e-6,"MEAN_MOTION_DDOT":0},{"OBJECT_NAME":"PEGASUS DEB","OBJECT_ID":"1994-029BC","EPOCH":"2026-03-09T22:00:19.479168","MEAN_MOTION":15.02669201,"ECCENTRICITY":0.00619411,"INCLINATION":81.9229,"RA_OF_ASC_NODE":10.1044,"ARG_OF_PERICENTER":202.7728,"MEAN_ANOMALY":222.9696,"EPHEMERIS_TYPE":0,"CLASSIFICATION_TYPE":"U","NORAD_CAT_ID":24007,"ELEMENT_SET_NO":999,"REV_AT_EPOCH":60998,"BSTAR":0.00034526552,"MEAN_MOTION_DOT":4.826e-5,"MEAN_MOTION_DDOT":0}]
